STARLINK-2206_new
1 17420C 21006H   21326.11477096  .01240997  00000-0  10355-1 0  3266
2 17420  97.4939  26.3168 0001826 207.6562 187.0114 15.68806229    11
STARLINK-2206_old
1 27420C 21006H   21325.15522257  .01237418  00000-0  11280-1 0  3250
2 27420  97.4939  25.2920 0001739 211.7566 170.5506 15.66648895    11
